OBJECT_NAME,OBJECT_ID,EPOCH,MEAN_MOTION,ECCENTRICITY,INCLINATION,RA_OF_ASC_NODE,ARG_OF_PERICENTER,MEAN_ANOMALY,EPHEMERIS_TYPE,CLASSIFICATION_TYPE,NORAD_CAT_ID,ELEMENT_SET_NO,REV_AT_EPOCH,BSTAR,MEAN_MOTION_DOT,MEAN_MOTION_DDOT
DMSP 5D-3 F16 (USA 172),2003-048A,2026-06-14T11:46:39.726912,14.14482964,.0007635,98.9891,189.3012,147.2361,345.7600,0,U,28054,999,16910,.32462E-4,.17E-6,0
CHUANGXIN 1 (CX-1),2003-049B,2026-06-14T11:32:40.051968,14.48583199,.0012226,98.5084,64.5314,185.8305,174.2748,0,U,28058,999,19588,.60119E-4,.181E-5,0
YAMAL 202,2003-053A,2026-06-14T13:00:38.636640,1.00271409,.0003329,6.3363,70.9695,4.6290,185.9853,0,U,28089,999,8267,0,-.78E-6,0
UFO 11 (USA 174),2003-057A,2026-06-14T03:02:21.600096,1.00274485,.00026411,8.9324,33.8445,52.1453,297.6344,0,U,28117,999,8241,0,-.104E-5,0
NAVSTAR 53 (USA 175),2003-058A,2026-06-12T21:30:57.541248,1.92678364,.0001955,55.0247,23.4258,339.3640,20.6841,0,U,28129,999,16438,0,-.69E-6,0
USA 176 (DSP 22),2004-004A,2026-06-11T23:21:41.975136,1.00406369,.0001239,12.0550,26.1076,290.9902,243.8917,0,U,28158,999,3288,0,-.286E-5,0
ABS-4 (MOBISAT-1),2004-007A,2026-06-14T04:57:21.688128,1.00272806,.00051891,6.0345,72.0444,9.1837,316.5810,0,U,28184,999,5230,0,.42E-6,0
NAVSTAR 54 (USA 177),2004-009A,2026-06-14T09:43:39.179712,2.00554723,.011604,54.8321,275.7997,172.9554,191.4180,0,U,28190,999,16289,0,-.29E-6,0
SHIYAN-1 (SY-1),2004-012A,2026-06-14T02:48:48.176928,15.33691010,.00058692,97.8697,242.9858,43.2331,316.9370,0,U,28220,999,21062,.42897355E-3,.13905E-3,0
INTELSAT 10-02,2004-022A,2026-06-14T09:40:50.807712,1.00269700,.0000193,0.0108,324.0878,256.5276,186.2869,0,U,28358,999,8052,0,-.4E-7,0
NAVSTAR 55 (USA 178),2004-023A,2026-06-13T07:52:16.624416,2.00556690,.01599597,54.8614,86.8673,301.8799,184.9256,0,U,28361,999,16096,0,-.31E-6,0
APRIZESAT 2,2004-025A,2026-06-14T10:21:58.949856,14.38034822,.0104292,98.1011,331.5683,258.2655,100.6817,0,U,28366,999,15124,.54634E-4,.132E-5,0
SAUDICOMSAT 1,2004-025D,2026-06-14T06:23:36.885696,14.55471674,.0032845,98.5772,175.3191,34.3884,325.9430,0,U,28369,999,16370,.9119E-4,.35E-5,0
SAUDICOMSAT 2,2004-025E,2026-06-14T07:06:00.971712,14.49979782,.0054139,98.6642,177.4602,268.4401,91.0590,0,U,28370,999,15968,.71267E-4,.231E-5,0
SAUDISAT 2,2004-025F,2026-06-14T11:41:56.320224,14.56682552,.0023692,98.5508,165.3996,306.9351,52.9676,0,U,28371,999,16535,.61943E-4,.228E-5,0
APRIZESAT 1,2004-025G,2026-06-14T06:17:30.096096,14.51775632,.0044926,98.6304,175.9081,162.6320,197.6423,0,U,28372,999,16148,.61045E-4,.199E-5,0
AURA,2004-026A,2026-06-14T10:51:49.714272,14.61325390,.0001238,98.3417,121.8833,73.7135,286.4202,0,U,28376,999,16581,.1472E-3,.679E-5,0
ANIK F2,2004-027A,2026-06-14T12:01:38.470944,1.00271308,.0003993,3.2801,79.4822,6.9388,245.6603,0,U,28378,999,4123,0,-.45E-6,0
COSMOS 2407,2004-028A,2026-06-14T13:03:52.971840,13.76334536,.0037811,82.9608,76.7915,259.6222,274.4137,0,U,28380,999,9951,.34789E-4,.49E-6,0
SHIJIAN-6 01A (SJ-6 01A),2004-035A,2026-06-14T07:56:55.771584,15.17962461,.0007563,97.5859,192.4273,136.2009,223.9825,0,U,28413,999,18703,.36272E-3,.7305E-4,0
SHIJIAN-6 01B (SJ-6 01B),2004-035B,2026-06-14T12:39:53.914176,15.06307854,.0005663,97.6043,183.4281,135.6555,224.5127,0,U,28414,999,18642,.47855E-3,.6976E-4,0
COSMOS 2408,2004-037A,2026-06-14T12:26:52.219680,12.45680108,.0015015,82.4847,327.5367,274.5087,85.4279,0,U,28419,999,98757,-.26621E-4,.6E-7,0
COSMOS 2409,2004-037B,2026-06-14T11:28:27.844320,12.45323951,.001266,82.4849,330.7877,286.8712,73.0981,0,U,28420,999,98721,-.7952E-4,-.2E-7,0
AMC-15,2004-041A,2026-06-14T11:45:38.585088,1.00271448,.0002095,0.0187,330.0587,124.7516,239.3508,0,U,28446,999,7927,0,-.81E-6,0
JB-3 3 (ZY 2C),2004-044A,2026-06-14T10:17:10.397184,15.19306966,.0032135,97.2757,319.1229,228.6163,131.2308,0,U,28470,999,18736,.18423E-3,.3873E-4,0
NAVSTAR 56 (USA 180),2004-045A,2026-06-13T08:05:24.294336,2.00555605,.01698057,55.1372,325.0509,316.2769,61.7561,0,U,28474,999,15835,0,-.74E-6,0
SWIFT,2004-047A,2026-06-13T19:34:29.485920,15.68026337,.0001739,20.5521,210.9067,231.5121,128.5169,0,U,28485,999,18633,.41135E-3,.48901E-3,0
NANOSAT-1,2004-049B,2026-06-14T07:54:58.525056,14.80154534,.0002949,98.2272,301.9210,315.3065,44.7908,0,U,28493,999,15502,.12672E-3,.907E-5,0
COSMOS 2414,2005-002A,2026-06-14T08:45:16.739712,13.87926356,.0039664,82.9501,45.7817,339.4728,20.4839,0,U,28521,999,8342,.42052E-4,.66E-6,0
NSS-10,2005-003A,2026-06-14T02:39:46.059264,1.00270897,.00026568,6.4417,70.4904,2.3381,192.0841,0,U,28526,999,5312,0,-.248E-5,0
INMARSAT 4-F1,2005-009A,2026-06-14T10:31:55.255008,1.00271419,.0002439,5.1643,42.7535,41.9574,154.1284,0,U,28628,999,7764,0,.36E-6,0
